{
  "type": "FeatureCollection",
  "features": [
    {
      "type": "Feature",
      "properties": {
        "norad_id": 33698,
        "name": "FENGYUN 1C DEB",
        "group": "fengyun-1c-debris",
        "lat": 46.38128259766964,
        "lon": 141.68157006843234,
        "alt_km": 673.6119438273117,
        "timestamp": "2025-12-16T17:51:11.218629+00:00",
        "meta_object_name": "FENGYUN 1C DEB",
        "meta_object_id": "1999-025DGK",
        "meta_epoch": "2025-12-14T04:11:59.150688",
        "meta_mean_motion": 14.55721925,
        "meta_eccentricity": 0.01374406,
        "meta_inclination": 99.6213,
        "meta_ra_of_asc_node": 308.4698,
        "meta_arg_of_pericenter": 213.5577,
        "meta_mean_anomaly": 145.6854,
        "meta_ephemeris_type": 0,
        "meta_classification_type": "U",
        "meta_norad_cat_id": 33698,
        "meta_element_set_no": 999,
        "meta_rev_at_epoch": 95657,
        "meta_bstar": 0.00034585352,
        "meta_mean_motion_dot": 1.65e-05,
        "meta_mean_motion_ddot": 0,
        "tle_line1": "1 33698U 99025DGK 25348.17499017  .00001650  00000+0  34585-3 0  9993",
        "tle_line2": "2 33698  99.6213 308.4698 0137440 213.5577 145.6854 14.55721925956574"
      },
      "geometry": {
        "type": "Point",
        "coordinates": [
          141.68157006843234,
          46.38128259766964
        ]
      }
    },
    {
      "type": "Feature",
      "properties": {
        "norad_id": 33701,
        "name": "FENGYUN 1C DEB",
        "group": "fengyun-1c-debris",
        "lat": 23.0651292752315,
        "lon": 128.66560138081684,
        "alt_km": 794.7864318935535,
        "timestamp": "2025-12-16T17:51:11.218640+00:00",
        "meta_object_name": "FENGYUN 1C DEB",
        "meta_object_id": "1999-025DGN",
        "meta_epoch": "2025-11-19T19:29:54.481632",
        "meta_mean_motion": 14.02181122,
        "meta_eccentricity": 0.01331995,
        "meta_inclination": 98.6598,
        "meta_ra_of_asc_node": 279.346,
        "meta_arg_of_pericenter": 252.9525,
        "meta_mean_anomaly": 105.7013,
        "meta_ephemeris_type": 0,
        "meta_classification_type": "U",
        "meta_norad_cat_id": 33701,
        "meta_element_set_no": 999,
        "meta_rev_at_epoch": 90184,
        "meta_bstar": 0.0018411078,
        "meta_mean_motion_dot": 3.003e-05,
        "meta_mean_motion_ddot": 0,
        "tle_line1": "1 33701U 99025DGN 25323.81243613  .00003003  00000+0  18411-2 0  9994",
        "tle_line2": "2 33701  98.6598 279.3460 0133199 252.9525 105.7013 14.02181122901849"
      },
      "geometry": {
        "type": "Point",
        "coordinates": [
          128.66560138081684,
          23.0651292752315
        ]
      }
    },
    {
      "type": "Feature",
      "properties": {
        "norad_id": 33710,
        "name": "FENGYUN 1C DEB",
        "group": "fengyun-1c-debris",
        "lat": -29.483152603350664,
        "lon": 94.71857969990005,
        "alt_km": 898.8542990960386,
        "timestamp": "2025-12-16T17:51:11.218677+00:00",
        "meta_object_name": "FENGYUN 1C DEB",
        "meta_object_id": "1999-025DGX",
        "meta_epoch": "2025-12-11T05:18:37.844640",
        "meta_mean_motion": 14.11630786,
        "meta_eccentricity": 0.00561161,
        "meta_inclination": 98.9793,
        "meta_ra_of_asc_node": 84.0646,
        "meta_arg_of_pericenter": 151.6019,
        "meta_mean_anomaly": 208.823,
        "meta_ephemeris_type": 0,
        "meta_classification_type": "U",
        "meta_norad_cat_id": 33710,
        "meta_element_set_no": 999,
        "meta_rev_at_epoch": 67635,
        "meta_bstar": 0.0016514968,
        "meta_mean_motion_dot": 3.003e-05,
        "meta_mean_motion_ddot": 0,
        "tle_line1": "1 33710U 99025DGX 25345.22127135  .00003003  00000+0  16515-2 0  9996",
        "tle_line2": "2 33710  98.9793  84.0646 0056116 151.6019 208.8230 14.11630786676358"
      },
      "geometry": {
        "type": "Point",
        "coordinates": [
          94.71857969990005,
          -29.483152603350664
        ]
      }
    },
    {
      "type": "Feature",
      "properties": {
        "norad_id": 33711,
        "name": "FENGYUN 1C DEB",
        "group": "fengyun-1c-debris",
        "lat": -37.330364907759495,
        "lon": 51.32754458101924,
        "alt_km": 878.0426713641818,
        "timestamp": "2025-12-16T17:51:11.218689+00:00",
        "meta_object_name": "FENGYUN 1C DEB",
        "meta_object_id": "1999-025DGY",
        "meta_epoch": "2025-12-15T22:18:57.196224",
        "meta_mean_motion": 14.00923922,
        "meta_eccentricity": 0.00962136,
        "meta_inclination": 99.1843,
        "meta_ra_of_asc_node": 43.4219,
        "meta_arg_of_pericenter": 39.334,
        "meta_mean_anomaly": 140.6379,
        "meta_ephemeris_type": 0,
        "meta_classification_type": "U",
        "meta_norad_cat_id": 33711,
        "meta_element_set_no": 999,
        "meta_rev_at_epoch": 91976,
        "meta_bstar": 0.0004993116,
        "meta_mean_motion_dot": 7.32e-06,
        "meta_mean_motion_ddot": 0,
        "tle_line1": "1 33711U 99025DGY 25349.92982866  .00000732  00000+0  49931-3 0  9993",
        "tle_line2": "2 33711  99.1843  43.4219 0096213  39.3340 140.6379 14.00923922919761"
      },
      "geometry": {
        "type": "Point",
        "coordinates": [
          51.32754458101924,
          -37.330364907759495
        ]
      }
    },
    {
      "type": "Feature",
      "properties": {
        "norad_id": 33716,
        "name": "FENGYUN 1C DEB",
        "group": "fengyun-1c-debris",
        "lat": 0.33524978723502064,
        "lon": -83.63150937229759,
        "alt_km": 720.7713856864602,
        "timestamp": "2025-12-16T17:51:11.218700+00:00",
        "meta_object_name": "FENGYUN 1C DEB",
        "meta_object_id": "1999-025DHD",
        "meta_epoch": "2025-12-15T13:21:26.837568",
        "meta_mean_motion": 14.32672501,
        "meta_eccentricity": 0.00934659,
        "meta_inclination": 98.8741,
        "meta_ra_of_asc_node": 275.2055,
        "meta_arg_of_pericenter": 349.6765,
        "meta_mean_anomaly": 10.2496,
        "meta_ephemeris_type": 0,
        "meta_classification_type": "U",
        "meta_norad_cat_id": 33716,
        "meta_element_set_no": 999,
        "meta_rev_at_epoch": 65198,
        "meta_bstar": 0.00019083481,
        "meta_mean_motion_dot": 4.97e-06,
        "meta_mean_motion_ddot": 0,
        "tle_line1": "1 33716U 99025DHD 25349.55656062  .00000497  00000+0  19083-3 0  9996",
        "tle_line2": "2 33716  98.8741 275.2055 0093465 349.6765  10.2496 14.32672501651984"
      },
      "geometry": {
        "type": "Point",
        "coordinates": [
          -83.63150937229759,
          0.33524978723502064
        ]
      }
    },
    {
      "type": "Feature",
      "properties": {
        "norad_id": 33718,
        "name": "FENGYUN 1C DEB",
        "group": "fengyun-1c-debris",
        "lat": 75.91029252030123,
        "lon": -59.64778996899522,
        "alt_km": 920.6835005959865,
        "timestamp": "2025-12-16T17:51:11.218710+00:00",
        "meta_object_name": "FENGYUN 1C DEB",
        "meta_object_id": "1999-025DHF",
        "meta_epoch": "2025-12-11T12:53:11.119200",
        "meta_mean_motion": 14.08062105,
        "meta_eccentricity": 0.00978602,
        "meta_inclination": 99.6588,
        "meta_ra_of_asc_node": 72.057,
        "meta_arg_of_pericenter": 323.1333,
        "meta_mean_anomaly": 36.3133,
        "meta_ephemeris_type": 0,
        "meta_classification_type": "U",
        "meta_norad_cat_id": 33718,
        "meta_element_set_no": 999,
        "meta_rev_at_epoch": 69169,
        "meta_bstar": 0.0025519977,
        "meta_mean_motion_dot": 4.491e-05,
        "meta_mean_motion_ddot": 0,
        "tle_line1": "1 33718U 99025DHF 25345.53693425  .00004491  00000+0  25520-2 0  9996",
        "tle_line2": "2 33718  99.6588  72.0570 0097860 323.1333  36.3133 14.08062105691695"
      },
      "geometry": {
        "type": "Point",
        "coordinates": [
          -59.64778996899522,
          75.91029252030123
        ]
      }
    },
    {
      "type": "Feature",
      "properties": {
        "norad_id": 33719,
        "name": "FENGYUN 1C DEB",
        "group": "fengyun-1c-debris",
        "lat": -13.541476629927105,
        "lon": -131.42924098842045,
        "alt_km": 830.5332004305246,
        "timestamp": "2025-12-16T17:51:11.218720+00:00",
        "meta_object_name": "FENGYUN 1C DEB",
        "meta_object_id": "1999-025DHG",
        "meta_epoch": "2025-12-15T23:13:37.519968",
        "meta_mean_motion": 14.23490845,
        "meta_eccentricity": 0.00302903,
        "meta_inclination": 98.7744,
        "meta_ra_of_asc_node": 49.9288,
        "meta_arg_of_pericenter": 70.7785,
        "meta_mean_anomaly": 107.6686,
        "meta_ephemeris_type": 0,
        "meta_classification_type": "U",
        "meta_norad_cat_id": 33719,
        "meta_element_set_no": 999,
        "meta_rev_at_epoch": 92059,
        "meta_bstar": 0.00071784194,
        "meta_mean_motion_dot": 1.596e-05,
        "meta_mean_motion_ddot": 0,
        "tle_line1": "1 33719U 99025DHG 25349.96779537  .00001596  00000+0  71784-3 0  9994",
        "tle_line2": "2 33719  98.7744  49.9288 0030290  70.7785 107.6686 14.23490845920591"
      },
      "geometry": {
        "type": "Point",
        "coordinates": [
          -131.42924098842045,
          -13.541476629927105
        ]
      }
    }
  ]
}